{
  "type": "FeatureCollection",
  "features": [
    {
      "type": "Feature",
      "properties": {
        "norad_id": 41599,
        "name": "CARTOSAT-2C",
        "group": "resource",
        "lat": -56.43431908537305,
        "lon": 65.42311397030583,
        "alt_km": 515.1282356896518,
        "timestamp": "2025-12-22T20:43:45.500140+00:00",
        "meta_object_name": "CARTOSAT-2C",
        "meta_object_id": "2016-040A",
        "meta_epoch": "2025-12-21T18:06:24.689088",
        "meta_mean_motion": 15.19188008,
        "meta_eccentricity": 0.00110207,
        "meta_inclination": 97.4756,
        "meta_ra_of_asc_node": 52.9115,
        "meta_arg_of_pericenter": 34.9019,
        "meta_mean_anomaly": 325.2936,
        "meta_ephemeris_type": 0,
        "meta_classification_type": "U",
        "meta_norad_cat_id": 41599,
        "meta_element_set_no": 999,
        "meta_rev_at_epoch": 52677,
        "meta_bstar": 0.00012803175,
        "meta_mean_motion_dot": 2.628e-05,
        "meta_mean_motion_ddot": 0,
        "tle_line1": "1 41599U 16040A   25355.75445242  .00002628  00000+0  12803-3 0  9996",
        "tle_line2": "2 41599  97.4756  52.9115 0011020  34.9019 325.2936 15.19188008526779"
      },
      "geometry": {
        "type": "Point",
        "coordinates": [
          65.42311397030583,
          -56.43431908537305
        ]
      }
    },
    {
      "type": "Feature",
      "properties": {
        "norad_id": 41601,
        "name": "SKYSAT-C1",
        "group": "resource",
        "lat": 51.3377015765803,
        "lon": -137.88437946594,
        "alt_km": 463.6230791751568,
        "timestamp": "2025-12-22T20:43:45.500150+00:00",
        "meta_object_name": "SKYSAT-C1",
        "meta_object_id": "2016-040C",
        "meta_epoch": "2025-12-22T13:54:18.807840",
        "meta_mean_motion": 15.32757013,
        "meta_eccentricity": 0.00012074,
        "meta_inclination": 96.9804,
        "meta_ra_of_asc_node": 33.0383,
        "meta_arg_of_pericenter": 337.3501,
        "meta_mean_anomaly": 22.7689,
        "meta_ephemeris_type": 0,
        "meta_classification_type": "U",
        "meta_norad_cat_id": 41601,
        "meta_element_set_no": 999,
        "meta_rev_at_epoch": 53078,
        "meta_bstar": 0.00031179774,
        "meta_mean_motion_dot": 9.794e-05,
        "meta_mean_motion_ddot": 0,
        "tle_line1": "1 41601U 16040C   25356.57938435  .00009794  00000+0  31180-3 0  9992",
        "tle_line2": "2 41601  96.9804  33.0383 0001207 337.3501  22.7689 15.32757013530783"
      },
      "geometry": {
        "type": "Point",
        "coordinates": [
          -137.88437946594,
          51.3377015765803
        ]
      }
    },
    {
      "type": "Feature",
      "properties": {
        "norad_id": 41603,
        "name": "LAPAN-A3",
        "group": "resource",
        "lat": -51.76635450508391,
        "lon": 164.89310087223504,
        "alt_km": 474.9722074512156,
        "timestamp": "2025-12-22T20:43:45.500160+00:00",
        "meta_object_name": "LAPAN-A3",
        "meta_object_id": "2016-040E",
        "meta_epoch": "2025-12-22T15:00:48.720960",
        "meta_mean_motion": 15.31627094,
        "meta_eccentricity": 0.00087777,
        "meta_inclination": 97.1428,
        "meta_ra_of_asc_node": 353.8221,
        "meta_arg_of_pericenter": 293.3238,
        "meta_mean_anomaly": 66.708,
        "meta_ephemeris_type": 0,
        "meta_classification_type": "U",
        "meta_norad_cat_id": 41603,
        "meta_element_set_no": 999,
        "meta_rev_at_epoch": 52777,
        "meta_bstar": 0.00013889378,
        "meta_mean_motion_dot": 4.171e-05,
        "meta_mean_motion_ddot": 0,
        "tle_line1": "1 41603U 16040E   25356.62556390  .00004171  00000+0  13889-3 0  9996",
        "tle_line2": "2 41603  97.1428 353.8221 0008777 293.3238  66.7080 15.31627094527773"
      },
      "geometry": {
        "type": "Point",
        "coordinates": [
          164.89310087223504,
          -51.76635450508391
        ]
      }
    },
    {
      "type": "Feature",
      "properties": {
        "norad_id": 41604,
        "name": "BIROS",
        "group": "resource",
        "lat": 78.56860703920664,
        "lon": -9.123246901521885,
        "alt_km": 283.23414328719355,
        "timestamp": "2025-12-22T20:43:45.500183+00:00",
        "meta_object_name": "BIROS",
        "meta_object_id": "2016-040F",
        "meta_epoch": "2025-12-21T20:16:27.693408",
        "meta_mean_motion": 15.93143853,
        "meta_eccentricity": 0.00037129,
        "meta_inclination": 97.0682,
        "meta_ra_of_asc_node": 27.6655,
        "meta_arg_of_pericenter": 133.3571,
        "meta_mean_anomaly": 226.8015,
        "meta_ephemeris_type": 0,
        "meta_classification_type": "U",
        "meta_norad_cat_id": 41604,
        "meta_element_set_no": 999,
        "meta_rev_at_epoch": 53017,
        "meta_bstar": 0.00065293224,
        "meta_mean_motion_dot": 0.00227507,
        "meta_mean_motion_ddot": 2.144608e-05,
        "tle_line1": "1 41604U 16040F   25355.84476497  .00227507  21446-4  65293-3 0  9997",
        "tle_line2": "2 41604  97.0682  27.6655 0003712 133.3571 226.8015 15.93143853530178"
      },
      "geometry": {
        "type": "Point",
        "coordinates": [
          -9.123246901521885,
          78.56860703920664
        ]
      }
    },
    {
      "type": "Feature",
      "properties": {
        "norad_id": 41727,
        "name": "GAOFEN-3",
        "group": "resource",
        "lat": -2.2072968298712756,
        "lon": 2.621760450431024,
        "alt_km": 753.9609666821334,
        "timestamp": "2025-12-22T20:43:45.500194+00:00",
        "meta_object_name": "GAOFEN-3",
        "meta_object_id": "2016-049A",
        "meta_epoch": "2025-12-22T14:04:45.600096",
        "meta_mean_motion": 14.42215689,
        "meta_eccentricity": 0.00011891,
        "meta_inclination": 98.403,
        "meta_ra_of_asc_node": 2.0225,
        "meta_arg_of_pericenter": 55.5247,
        "meta_mean_anomaly": 304.6055,
        "meta_ephemeris_type": 0,
        "meta_classification_type": "U",
        "meta_norad_cat_id": 41727,
        "meta_element_set_no": 999,
        "meta_rev_at_epoch": 49319,
        "meta_bstar": 1.0207592e-05,
        "meta_mean_motion_dot": -1e-07,
        "meta_mean_motion_ddot": 0,
        "tle_line1": "1 41727U 16049A   25356.58663889 -.00000010  00000+0  10208-4 0  9991",
        "tle_line2": "2 41727  98.4030   2.0225 0001189  55.5247 304.6055 14.42215689493196"
      },
      "geometry": {
        "type": "Point",
        "coordinates": [
          2.621760450431024,
          -2.2072968298712756
        ]
      }
    },
    {
      "type": "Feature",
      "properties": {
        "norad_id": 41771,
        "name": "SKYSAT-C4",
        "group": "resource",
        "lat": 55.90247781592649,
        "lon": 11.200522201966326,
        "alt_km": 432.8234527072691,
        "timestamp": "2025-12-22T20:43:45.500205+00:00",
        "meta_object_name": "SKYSAT-C4",
        "meta_object_id": "2016-058B",
        "meta_epoch": "2025-12-22T12:42:01.643616",
        "meta_mean_motion": 15.425136,
        "meta_eccentricity": 0.00023222,
        "meta_inclination": 96.9359,
        "meta_ra_of_asc_node": 21.2414,
        "meta_arg_of_pericenter": 126.8022,
        "meta_mean_anomaly": 233.344,
        "meta_ephemeris_type": 0,
        "meta_classification_type": "U",
        "meta_norad_cat_id": 41771,
        "meta_element_set_no": 999,
        "meta_rev_at_epoch": 51818,
        "meta_bstar": 0.00035321412,
        "meta_mean_motion_dot": 0.00015247,
        "meta_mean_motion_ddot": 0,
        "tle_line1": "1 41771U 16058B   25356.52918569  .00015247  00000+0  35321-3 0  9991",
        "tle_line2": "2 41771  96.9359  21.2414 0002322 126.8022 233.3440 15.42513600518186"
      },
      "geometry": {
        "type": "Point",
        "coordinates": [
          11.200522201966326,
          55.90247781592649
        ]
      }
    },
    {
      "type": "Feature",
      "properties": {
        "norad_id": 41772,
        "name": "SKYSAT-C5",
        "group": "resource",
        "lat": 28.779163421083197,
        "lon": 36.280914852291836,
        "alt_km": 464.6643324987017,
        "timestamp": "2025-12-22T20:43:45.500215+00:00",
        "meta_object_name": "SKYSAT-C5",
        "meta_object_id": "2016-058C",
        "meta_epoch": "2025-12-22T01:49:00.968160",
        "meta_mean_motion": 15.34032906,
        "meta_eccentricity": 0.00038149,
        "meta_inclination": 97.0741,
        "meta_ra_of_asc_node": 39.4372,
        "meta_arg_of_pericenter": 246.7758,
        "meta_mean_anomaly": 113.3085,
        "meta_ephemeris_type": 0,
        "meta_classification_type": "U",
        "meta_norad_cat_id": 41772,
        "meta_element_set_no": 999,
        "meta_rev_at_epoch": 51659,
        "meta_bstar": 0.00030067318,
        "meta_mean_motion_dot": 9.83e-05,
        "meta_mean_motion_ddot": 0,
        "tle_line1": "1 41772U 16058C   25356.07570565  .00009830  00000+0  30067-3 0  9995",
        "tle_line2": "2 41772  97.0741  39.4372 0003814 246.7758 113.3085 15.34032906516594"
      },
      "geometry": {
        "type": "Point",
        "coordinates": [
          36.280914852291836,
          28.779163421083197
        ]
      }
    }
  ]
}